[Satellite]
VERSION=1.1
NAME=STARLINK-1202
NICKNAME=STARLINK-1202
TLE1=1 45183U 20012F   20078.25001157  .00934459  00000-0  26211-1 0  9991
TLE2=2 45183  52.9996 125.4111 0001717  73.0861 166.2487 15.33676340  5242
STATUS=0
